DUCHIFAT-3              
1 44854U 19089C   20162.30079203  .00000265  00000-0  27837-4 0  9991
2 44854  36.9652 140.6212 0008744 358.4810   1.5902 14.99064568 27228
ORBITAL FACTORY 2 (OF-2)
1 45113U 19071C   20162.11941389  .00001735  00000-0  64539-4 0  9996
2 45113  51.6453  38.9769 0013423  33.7925 326.3910 15.33332481 20003
